[{"OBJECT_NAME":"STARLINK-4097","OBJECT_ID":"2022-086Z","EPOCH":"2026-03-09T15:47:41.080704","MEAN_MOTION":15.0884524,"ECCENTRICITY":0.0001261,"INCLINATION":53.2179,"RA_OF_ASC_NODE":194.2629,"ARG_OF_PERICENTER":86.5063,"MEAN_ANOMALY":273.6074,"EPHEMERIS_TYPE":0,"CLASSIFICATION_TYPE":"U","NORAD_CAT_ID":53265,"ELEMENT_SET_NO":999,"REV_AT_EPOCH":20106,"BSTAR":-7.938136e-6,"MEAN_MOTION_DOT":-4.14e-6,"MEAN_MOTION_DDOT":0},{"OBJECT_NAME":"ELECTRON KICK STAGE R\/B","OBJECT_ID":"2023-035A","EPOCH":"2026-03-09T00:22:03.988416","MEAN_MOTION":15.09409521,"ECCENTRICITY":0.00017263,"INCLINATION":44.1756,"RA_OF_ASC_NODE":311.3301,"ARG_OF_PERICENTER":9.8979,"MEAN_ANOMALY":350.1918,"EPHEMERIS_TYPE":0,"CLASSIFICATION_TYPE":"U","NORAD_CAT_ID":55908,"ELEMENT_SET_NO":999,"REV_AT_EPOCH":16322,"BSTAR":0.00066616987,"MEAN_MOTION_DOT":0.00010608,"MEAN_MOTION_DDOT":0}]
